ONEWEB-0216             
1 48801U 21045AL  24060.04958535 -.00000095  00000+0 -28596-3 0  9992
2 48801  87.8945  66.2241 0002226  86.5644 273.5741 13.15549960135090
ONEWEB-0239             
1 48802U 21045AM  24059.75011937 -.00000008  00000+0 -55858-4 0  9991
2 48802  87.8955  66.2498 0001722  59.4572 300.6728 13.15547181133970
ONEWEB-0249             
1 48967U 21060A   24059.89367339  .00000004  00000+0 -22791-4 0  9990
2 48967  87.9083  35.8000 0001901  84.4802 275.6545 13.16592947129175
ONEWEB-0250             
1 48968U 21060B   24059.89843070  .00000038  00000+0  65725-4 0  9992
2 48968  87.9082  35.7830 0001745  75.1038 285.0286 13.16595034129154
ONEWEB-0252             
1 48970U 21060D   24060.22931999  .00000088  00000+0  19701-3 0  9999
2 48970  87.9084  35.7265 0002069  82.9264 277.2102 13.16595958130559
ONEWEB-0253             
1 48971U 21060E   24059.91427524  .00000116  00000+0  26943-3 0  9996
2 48971  87.9080  35.8035 0002024  74.7032 285.4323 13.16594720129151
ONEWEB-0254             
1 48972U 21060F   24059.92376239  .00000119  00000+0  27691-3 0  9998
2 48972  87.9084  35.7774 0002010  73.6267 286.5085 13.16594966129157
ONEWEB-0255             
1 48973U 21060G   24059.88576587 -.00000103  00000+0 -30430-3 0  9992
2 48973  87.9078  35.8200 0001840  82.3011 277.8329 13.16594372129223
